LEMUR-1                 
1 40044U 14033AL  24102.46395061  .00003185  00000+0  43460-3 0  9992
2 40044  97.6926 267.4980 0055672 163.0559 197.2528 14.78237655527841
LEMUR-2-ANUBHAVTHAKUR   
1 41873U 16062E   24102.10376447  .00078383  00000+0  79992-3 0  9996
2 41873  51.6685  47.6216 0007147 120.8811 239.2888 15.64348645411565
LEMUR-2-GREENBERG       
1 42837U 17042N   24102.02966518  .00008531  00000+0  64489-3 0  9994
2 42837  97.3633 293.9767 0015464 261.3313  98.6161 15.02495318367554
LEMUR-2-ANDIS           
1 42838U 17042P   24102.50761123  .00007300  00000+0  55650-3 0  9996
2 42838  97.3660 294.2305 0015430 263.9118  96.0349 15.02224847367626
LEMUR-2-MONSON          
1 42839U 17042Q   24102.48832323  .00007856  00000+0  60991-3 0  9995
2 42839  97.3912 293.9497 0010757 249.8123 110.1946 15.01554561367574
LEMUR-2-FURIAUS         
1 42840U 17042R   24102.11844218  .00007065  00000+0  54790-3 0  9995
2 42840  97.3716 293.9194 0010700 311.1609  48.8693 15.01629165367515
LEMUR-2-PETERG          
1 42841U 17042S   24102.48578270  .00008960  00000+0  68772-3 0  9998
2 42841  97.3939 295.7676 0007014 245.9762 114.0730 15.01976675367649
LEMUR-2-DEMBITZ         
1 42842U 17042T   24101.80107269  .00006702  00000+0  51588-3 0  9999
2 42842  97.3862 295.0028 0011414 264.1621  95.8303 15.01928212367562
LEMUR-2-ZACHARY         
1 42845U 17042W   24102.11191020  .00009750  00000+0  68285-3 0  9993
2 42845  97.3808 295.5184 0007584 307.3935  52.6602 15.05406934367765
LEMUR-2-JIN-LUEN        
1 43182U 18014C   24101.68720311  .00009951  00000+0  61094-3 0  9994
2 43182  97.5939   5.3028 0011667 217.7988 142.2423 15.10247389338555
LEMUR-2-URAMCHANSOL     
1 43183U 18014D   24101.45703734  .00013572  00000+0  77661-3 0  9991
2 43183  97.5952   6.2966 0012079 204.1170 155.9496 15.12709914338597
LEMUR-2-KADI            
1 43184U 18014E   24101.67986964  .00010620  00000+0  63740-3 0  9998
2 43184  97.5767   4.8422 0010900 191.5533 168.5448 15.11060321338561
LEMUR-2-THENICKMOLO     
1 43185U 18014F   24101.50315817  .00011436  00000+0  66587-3 0  9992
2 43185  97.5886   5.5493 0007367 190.2672 169.8409 15.12165535338568
LEMUR-2-CHRISTINAHOLT   
1 43882U 18111G   24102.33386142  .00014490  00000+0  75937-3 0  9997
2 43882  97.6374  14.6176 0007602 182.4236 177.6961 15.15868680287641
LEMUR-2-TINYKEV         
1 43883U 18111H   24102.33196354  .00019681  00000+0  95886-3 0  9994
2 43883  97.6180  14.6708 0008365 177.1442 182.9840 15.18357316287732
LEMUR-2-REMY-COLTON     
1 43884U 18111J   24102.22171736  .00016354  00000+0  85450-3 0  9990
2 43884  97.6327  15.1724 0002284 124.3284 235.8165 15.15969956287691
LEMUR-2-GUSTAVO         
1 43885U 18111K   24102.26593062  .00015413  00000+0  82056-3 0  9999
2 43885  97.6310  14.3638 0012832 189.0366 171.0637 15.15250547287647
LEMUR-2-ZO              
1 43886U 18111L   24102.33762644  .00015078  00000+0  80726-3 0  9991
2 43886  97.6199  14.0151 0010717 206.4345 153.6341 15.15077018287661
LEMUR-2-NATALIEMURRAY   
1 43887U 18111M   24101.51482081  .00016857  00000+0  88948-3 0  9995
2 43887  97.6342  14.5646 0009897 155.7837 204.3862 15.15575588289574
LEMUR-2-SARAHBETTYBOO   
1 43888U 18111N   24102.51645331  .00018213  00000+0  93868-3 0  9991
2 43888  97.6687  18.3940 0008673 240.3763 119.6606 15.16401308289759
LEMUR-2-DAISY-HARPER    
1 43889U 18111P   24102.53393918  .00019245  00000+0  92910-3 0  9998
2 43889  97.6544  18.3749 0006551 237.8566 122.2032 15.18692007289780
LEMUR-2-ALEX-MADDY      
1 44407U 19038X   24102.54444207  .00102602  00000+0  15035-2 0  9995
2 44407  97.6691 101.5960 0005463 317.8007  42.2826 15.55189141264528
LEMUR-2-YNDRD           
1 44413U 19038AD  24102.51577704  .00467455  00000+0  21379-2 0  9996
2 44413  97.6474 103.7993 0005694 141.9970 218.1700 15.82518605264701
LEMUR-2-JPGSQUARED      
1 44855U 19089D   24102.22222503  .00046908  00000+0  14112-2 0  9997
2 44855  36.9646  48.2797 0009504 288.4772  71.4947 15.33367246238617
LEMUR-2-HIMOMANDDAD     
1 44860U 19089J   24102.16936879  .00064063  00000+0  16757-2 0  9993
2 44860  36.9619  46.8630 0010960 283.6815  76.2719 15.37621618238605
LEMUR-2-PAPPY           
1 44861U 19089K   24102.25822222  .00039585  00000+0  13613-2 0  9999
2 44861  36.9610  58.7306 0009435 282.3391  77.6304 15.29129013238449
LEMUR-2-THEODOSIA       
1 44863U 19089M   24101.26299779  .00049900  00000+0  14624-2 0  9991
2 44863  36.9650  52.5366 0008493 280.1560  79.8234 15.34185321238334
LEMUR-2-SLICERS         
1 46500U 20068Q   24102.42423231  .00039258  00000+0  10869-2 0  9993
2 46500  97.7866  67.9066 0007467 142.0818 218.0952 15.36855488194758
LEMUR-2-DAYWZAGOODDAY   
1 46501U 20068R   24102.45347070  .00034480  00000+0  10630-2 0  9991
2 46501  97.7915  67.7751 0007984 146.2140 213.9612 15.33493580194723
LEMUR-2-SUSURRUS        
1 46502U 20068S   24102.42511384  .00046939  00000+0  12985-2 0  9997
2 46502  97.7901  67.9773 0007605 145.2237 214.9505 15.36836694194756
LEMUR-2-NICHOL          
1 46503U 20068T   24102.42917840  .00027895  00000+0  93234-3 0  9992
2 46503  97.7929  66.5083 0007695 154.7190 205.4428 15.30950508194651
LEMUR-2-OZARAK          
1 46908U 20081D   24102.47441523  .00043069  00000+0  15083-2 0  9997
2 46908  36.8967 183.1960 0008045 161.8481 198.2557 15.28524066188656
LEMUR-2-JINDRA          
1 46909U 20081E   24101.52708932  .00059367  00000+0  16946-2 0  9990
2 46909  36.8958 174.5884 0007503 157.1564 202.9522 15.34966152188674
LEMUR-2-WALLACE         
1 46910U 20081F   24101.55397424  .00054864  00000+0  16590-2 0  9997
2 46910  36.8909 179.4544 0010075 160.9621 199.1509 15.33153730188618
LEMUR-2-JEREMIAH        
1 46911U 20081G   24101.60852960  .00041176  00000+0  14855-2 0  9999
2 46911  36.9026 187.6038 0012302 155.5389 204.5946 15.27524257188542
LEMUR-2-MANGO1          
1 47493U 21006CJ  24102.17643484  .00294371  00000+0  19285-2 0  9994
2 47493  97.3402 169.5567 0004889 223.9826 136.1051 15.74923952178857
LEMUR-2-CHANTAL         
1 47529U 21006DV  24102.43845542  .00084399  00000+0  11231-2 0  9992
2 47529  97.3382 167.5925 0004194 119.7993 240.3680 15.57875919179718
LEMUR-2-NOOBNOOB        
1 47538U 21006DY  24102.15937454  .00251309  00000+0  15086-2 0  9994
2 47538  97.3379 172.6618 0003231 180.4415 179.6848 15.77057860179006
LEMUR-2-AMANDA-SVANTE   
1 48269U 21034B   24102.43030629  .00007230  00000+0  63015-3 0  9994
2 48269  97.6671 169.0029 0003290  60.7024 299.4527 14.97172025160505
LEMUR-2-SPECIAL-K       
1 48273U 21034F   24102.14308239  .00010087  00000+0  85850-3 0  9997
2 48273  97.6680 168.8977 0004209  62.2105 297.9544 14.97991054160487
LEMUR-2-ANNABANANA      
1 48923U 21059AW  24102.18361884  .00084699  00000+0  69466-3 0  9990
2 48923  97.5820 263.1954 0005383 234.9285 125.1473 15.70204547155987
LEMUR-2-RAMONAMAE       
1 51021U 22002AP  24101.73850797  .00086952  00000+0  10552-2 0  9993
2 51021  97.3978 182.3447 0005542 217.6839 142.4030 15.60307155124964
LEMUR-2-ROHOVITHSA      
1 51036U 22002BE  24101.96911850  .00062380  00000+0  11814-2 0  9993
2 51036  97.3962 175.5792 0004731 235.8385 124.2417 15.48143087124546
LEMUR-2-MIRIWARI        
1 51054U 22002BY  24102.19878377  .00067640  00000+0  10440-2 0  9993
2 51054  97.3909 176.6573 0004620 227.3959 132.6905 15.53899779124644
LEMUR-2-DJIRANG         
1 51058U 22002CC  24101.74949858  .00107706  00000+0  16541-2 0  9996
2 51058  97.3874 175.9386 0004761 229.8736 130.2100 15.53884317124574
LEMUR-2-VANDENDRIES     
1 52733U 22057B   24102.31733592  .00190029  00000+0  18004-2 0  9993
2 52733  97.5473 231.7612 0008045 213.7243 146.3505 15.66302624104664
LEMUR-2-HANCOM-1        
1 52740U 22057J   24101.90064189  .00083387  00000+0  13159-2 0  9998
2 52740  97.5672 232.2133 0004501  15.6898 344.4493 15.53223251104543
LEMUR-2-MIMI1307        
1 52769U 22057AP  24102.35727924  .00363537  00000+0  23712-2 0  9996
2 52769  97.5717 234.3514 0006633 268.8719  91.1785 15.74823252104722
LEMUR-2-PHILARI         
1 55013U 23001E   24102.18623911  .00053848  00000+0  13562-2 0  9996
2 55013  97.4295 167.2782 0004042  49.9806 310.1793 15.39717869 70750
LEMUR-2-DISCLAIMER      
1 55014U 23001F   24102.13156527  .00069443  00000+0  14988-2 0  9997
2 55014  97.4305 167.5949 0004574  58.7000 301.4696 15.44291381 70752
LEMUR-2-STEVEALBERS     
1 55017U 23001J   24101.90488935  .00040757  00000+0  11001-2 0  9995
2 55017  97.4284 166.1969 0006066  68.3975 291.7916 15.37643296 70668
LEMUR-2-EMMACULATE      
1 55037U 23001AE  24102.09450620  .00169938  00000+0  20590-2 0  9994
2 55037  97.4309 170.7954 0002447   1.4377 358.6887 15.60076759 70958
LEMUR-2-MMOLO           
1 55038U 23001AF  24101.74299411  .00032078  00000+0  92882-3 0  9993
2 55038  97.4366 167.5544 0010094  43.2248 316.9786 15.35471556 70703
LEMUR-2-FUENTETAJA-01   
1 55088U 23001CH  24102.12622395  .00057100  00000+0  13749-2 0  9999
2 55088  97.4369 168.1776 0007233  37.2582 322.9165 15.41052324 70770
LEMUR-2-ONREFLECTION    
1 56182U 23054E   24101.29303134  .00038189  00000+0  96322-3 0  9992
2 56182  97.3635 359.1072 0007389  69.8086 290.3954 15.39735414 55754
LEMUR-2-SPACEGUS        
1 56187U 23054K   24102.22220858  .00037670  00000+0  92982-3 0  9994
2 56187  97.3661   0.3580 0007682  55.3187 304.8783 15.40394964 55917
LEMUR-2-ROMEO-N-LEO     
1 56206U 23054AE  24102.45491279  .00544618  00000+0  20367-2 0  9990
2 56206  97.3468   6.9495 0005610 118.3846 241.7991 15.86597511 56387
LEMUR-2-EMBRIONOVIS     
1 56970U 23084AQ  24101.89387581  .00008507  00000+0  41335-3 0  9999
2 56970  97.5393 220.8966 0013064 243.5897 116.3997 15.18616858 45903
LEMUR-2-NAZIYAH         
1 56974U 23084AU  24102.07201329  .00036103  00000+0  13136-2 0  9999
2 56974  97.5251 222.3504 0011877 226.4817 133.5437 15.28081686 46049
LEMUR-2-AADAM-ALIYAH    
1 56977U 23084AX  24101.87417190  .00031294  00000+0  11402-2 0  9994
2 56977  97.5268 222.2390 0012257 229.4325 130.5848 15.28063709 46018
